ORBCOMM FM05 [-]        
1 25117U 97084F   24082.22810025  .00003488  00000+0  10883-2 0  9994
2 25117  45.0169  11.9818 0001741  86.3799 273.7250 14.42354910375279
ORBCOMM FM06 [+]        
1 25118U 97084G   24082.21718881  .00003910  00000+0  12143-2 0  9992
2 25118  45.0158  12.2134 0001102  77.2097  75.7990 14.42363456376181
ORBCOMM FM07 [-]        
1 25119U 97084H   24082.24567194  .00003491  00000+0  10905-2 0  9993
2 25119  45.0157  12.5860 0002539  79.3365 280.7770 14.42290843376189
ORBCOMM FM03 [-]        
1 25158U 98007B   24082.41250467  .00002250  00000+0  87527-3 0  9990
2 25158 107.9785 289.2320 0048693 315.8770  43.8489 14.31954060359317
ORBCOMM FM04 [+]        
1 25159U 98007C   24082.40996714  .00001935  00000+0  75739-3 0  9993
2 25159 107.9775 292.1319 0044301 313.6494  46.0976 14.32209217359481
ORBCOMM FM17 [-]        
1 25413U 98046A   24082.48244471  .00001988  00000+0  77171-3 0  9993
2 25413  44.9934 225.8099 0002426 138.5779 221.5252 14.32926234338334
ORBCOMM FM18 [-]        
1 25414U 98046B   24082.22200839  .00002277  00000+0  83086-3 0  9990
2 25414  44.9930 155.1622 0004776 191.9129 168.1606 14.35616434339230
ORBCOMM FM19 [+]        
1 25415U 98046C   24082.34484311  .00002556  00000+0  92981-3 0  9997
2 25415  44.9934 155.9274 0003601 193.3820 286.6445 14.35452779339211
